{
    "type": "Feature",
    "geometry": {
        "type": "MultiPolygon",
        "coordinates": [
            [
                [
                    [
                        122.4417,
                        27.0095
                    ],
                    [
                        121.2643,
                        27.0095
                    ],
                    [
                        121.0112,
                        26.5281
                    ],
                    [
                        122.2,
                        26.5281
                    ],
                    [
                        122.4417,
                        27.0095
                    ]
                ],
                [
                    [
                        122.4,
                        25.13
                    ],
                    [
                        122.4,
                        24.93
                    ],
                    [
                        122.2,
                        24.93
                    ],
                    [
                        122.2,
                        25.13
                    ]
                ],
                [
                    [
                        119.25,
                        22.38
                    ],
                    [
                        119.45,
                        22.38
                    ],
                    [
                        119.45,
                        22.22
                    ],
                    [
                        119.25,
                        22.22
                    ]
                ],
                [
                    [
                        118.06,
                        24.07
                    ],
                    [
                        118.9,
                        23.5
                    ],
                    [
                        117.3,
                        22.3
                    ],
                    [
                        116.46,
                        23.01
                    ]
                ],
                [
                    [
                        120.14,
                        25.32
                    ],
                    [
                        119.56,
                        24.84
                    ],
                    [
                        119.26,
                        25.12
                    ],
                    [
                        119.8,
                        25.62
                    ],
                    [
                        120.14,
                        25.32
                    ]
                ]
            ]
        ]
    }
}