{
    "type": "Feature",
    "geometry": {
        "type": "MultiPolygon",
        "coordinates": [
            [
                [
                    [
                        122.010598450799,
                        26.11417131394791
                    ],
                    [
                        121.9618128635621,
                        25.76436990698563
                    ],
                    [
                        121.2405702245345,
                        25.66761162577099
                    ],
                    [
                        120.7736180574561,
                        25.37016333967217
                    ],
                    [
                        120.4662427613321,
                        25.59541956549698
                    ],
                    [
                        121.1056149552186,
                        26.02068449006619
                    ]
                ],
                [
                    [
                        118.9626369083575,
                        24.28503188831036
                    ],
                    [
                        119.1654228105196,
                        24.06281810254995
                    ],
                    [
                        118.9248343802676,
                        23.65698137216862
                    ],
                    [
                        118.9912494232895,
                        22.99091371103866
                    ],
                    [
                        118.6393611086524,
                        22.91557595731106
                    ],
                    [
                        118.5597252259958,
                        23.64865225992283
                    ]
                ],
                [
                    [
                        119.6835541742471,
                        22.5267290959934
                    ],
                    [
                        120.2842439232601,
                        21.93188605216247
                    ],
                    [
                        120.117102377351,
                        21.63732386486583
                    ],
                    [
                        119.3606451992867,
                        22.35945196777287
                    ]
                ],
                [
                    [
                        122.4471952571587,
                        22.60889444412248
                    ],
                    [
                        122.4207708721004,
                        22.08676387407338
                    ],
                    [
                        122.3246416670844,
                        21.77226121322779
                    ],
                    [
                        122.1343891294804,
                        21.55280262656016
                    ],
                    [
                        121.6212418213637,
                        21.29031652481241
                    ],
                    [
                        121.4857345069686,
                        21.65465391800393
                    ],
                    [
                        121.8626898742852,
                        21.83699652777188
                    ],
                    [
                        122.0044420937394,
                        22.07229173699768
                    ],
                    [
                        122.0182045819588,
                        22.55234506638082
                    ]
                ],
                [
                    [
                        122.3967151382172,
                        24.21899424281432
                    ],
                    [
                        122.2254872833962,
                        23.56271220473593
                    ],
                    [
                        121.897468163381,
                        23.68213052866781
                    ],
                    [
                        122.0555214591113,
                        24.24587053513282
                    ]
                ],
                [
                    [
                        118.34903191729,
                        24.5351576378372
                    ],
                    [
                        118.4197658579,
                        24.5368023406326
                    ],
                    [
                        118.480081552535,
                        24.5236422799713
                    ],
                    [
                        118.527237322262,
                        24.4841626202763
                    ],
                    [
                        118.545880169014,
                        24.4402964638833
                    ],
                    [
                        118.525043583085,
                        24.3898505490794
                    ],
                    [
                        118.470210856362,
                        24.3415980700513
                    ],
                    [
                        118.401670060319,
                        24.3054088158995
                    ],
                    [
                        118.353417394118,
                        24.2917008505966
                    ],
                    [
                        118.300778187649,
                        24.2911527270672
                    ],
                    [
                        118.24320407778,
                        24.2955395566037
                    ],
                    [
                        118.200434801218,
                        24.3125378286409
                    ],
                    [
                        118.168632032845,
                        24.3311810368559
                    ],
                    [
                        118.144505882592,
                        24.3646290197543
                    ],
                    [
                        118.142861055123,
                        24.3969802645232
                    ],
                    [
                        118.175760800519,
                        24.4496194413788
                    ],
                    [
                        118.224013578387,
                        24.4869054283507
                    ],
                    [
                        118.285426138283,
                        24.5198047549249
                    ],
                    [
                        118.34903191729,
                        24.5351576378372
                    ]
                ],
                [
                    [
                        119.61402053816,
                        25.1070565629846
                    ],
                    [
                        119.665563010292,
                        25.0917032204746
                    ],
                    [
                        119.700655665593,
                        25.0631901239256
                    ],
                    [
                        119.73026499321,
                        25.0193239239192
                    ],
                    [
                        119.743424560496,
                        24.9732644892428
                    ],
                    [
                        119.737941112275,
                        24.9337850439762
                    ],
                    [
                        119.719297876386,
                        24.896498957295
                    ],
                    [
                        119.690784819108,
                        24.8646961708945
                    ],
                    [
                        119.644725407079,
                        24.8416666721127
                    ],
                    [
                        119.600859371343,
                        24.8339902904163
                    ],
                    [
                        119.539447034019,
                        24.8460537154135
                    ],
                    [
                        119.497774493071,
                        24.8778567934544
                    ],
                    [
                        119.469261816726,
                        24.9228196406013
                    ],
                    [
                        119.457198933971,
                        24.9765556355781
                    ],
                    [
                        119.471455619189,
                        25.0237116100309
                    ],
                    [
                        119.49996872247,
                        25.064287613388
                    ],
                    [
                        119.55589802167,
                        25.093896982668
                    ],
                    [
                        119.61402053816,
                        25.1070565629846
                    ]
                ],
                [
                    [
                        120.446385397439,
                        26.5074773458509
                    ],
                    [
                        120.529730721029,
                        26.4921238418802
                    ],
                    [
                        120.58456307223,
                        26.4647072979371
                    ],
                    [
                        120.619655690039,
                        26.4318075852819
                    ],
                    [
                        120.648168370013,
                        26.3923279923199
                    ],
                    [
                        120.653651435537,
                        26.3594284149731
                    ],
                    [
                        120.650361294731,
                        26.3254322258534
                    ],
                    [
                        120.632814709812,
                        26.2925327531982
                    ],
                    [
                        120.593335045033,
                        26.2453769068631
                    ],
                    [
                        120.536309035327,
                        26.2080910047055
                    ],
                    [
                        120.445286934938,
                        26.181771771848
                    ],
                    [
                        120.359748144753,
                        26.16641903025
                    ],
                    [
                        120.27420941378,
                        26.1620328050904
                    ],
                    [
                        120.205120553041,
                        26.1795795418946
                    ],
                    [
                        120.132741800388,
                        26.2080928112217
                    ],
                    [
                        120.08997275006,
                        26.2640222450024
                    ],
                    [
                        120.084489727227,
                        26.3056950394141
                    ],
                    [
                        120.104229731225,
                        26.3605275435671
                    ],
                    [
                        120.156869199628,
                        26.407683337252
                    ],
                    [
                        120.216088545932,
                        26.4504524928228
                    ],
                    [
                        120.29066093446,
                        26.4822550596302
                    ],
                    [
                        120.343300234143,
                        26.4987045988593
                    ],
                    [
                        120.446385397439,
                        26.5074773458509
                    ]
                ],
                [
                    [
                        119.963858236878,
                        26.3111788341369
                    ],
                    [
                        120.005530938249,
                        26.310081997571
                    ],
                    [
                        120.029657146484,
                        26.2925354608557
                    ],
                    [
                        120.069136331113,
                        26.2519591672372
                    ],
                    [
                        120.099842200523,
                        26.1905465278076
                    ],
                    [
                        120.110808355918,
                        26.1269406725267
                    ],
                    [
                        120.111904667117,
                        26.064431512877
                    ],
                    [
                        120.099841190077,
                        26.0041157149051
                    ],
                    [
                        120.083391143464,
                        25.9492831951717
                    ],
                    [
                        120.055974632443,
                        25.901030634241
                    ],
                    [
                        120.016494989152,
                        25.8560680810206
                    ],
                    [
                        119.966048974266,
                        25.8352319156935
                    ],
                    [
                        119.917796352704,
                        25.8319421700171
                    ],
                    [
                        119.865157188417,
                        25.8396189617213
                    ],
                    [
                        119.827871247105,
                        25.8703253761879
                    ],
                    [
                        119.804841826922,
                        25.9141915516413
                    ],
                    [
                        119.786199106507,
                        25.97670079047
                    ],
                    [
                        119.77632972857,
                        26.0655296369158
                    ],
                    [
                        119.781813249419,
                        26.1159756001838
                    ],
                    [
                        119.798263385185,
                        26.1872579013187
                    ],
                    [
                        119.832259813633,
                        26.2377037390624
                    ],
                    [
                        119.872836102938,
                        26.280472983908
                    ],
                    [
                        119.904639078126,
                        26.3024058811087
                    ],
                    [
                        119.963858236878,
                        26.3111788341369
                    ]
                ]
            ]
        ]
    }
}