{
    "type": "Feature",
    "geometry": {
        "type": "MultiPolygon",
        "coordinates": [
            [
                [
                    [
                        121.666667,
                        26.533333
                    ],
                    [
                        122.6,
                        26.533333
                    ],
                    [
                        122.6,
                        25.716667
                    ],
                    [
                        121.666667,
                        25.716667
                    ],
                    [
                        121.666667,
                        26.533333
                    ]
                ],
                [
                    [
                        121.666667,
                        25.716667
                    ],
                    [
                        121.666667,
                        26.533333
                    ],
                    [
                        121.216667,
                        26.283333
                    ],
                    [
                        121.216667,
                        25.65
                    ],
                    [
                        121.666667,
                        25.716667
                    ]
                ],
                [
                    [
                        120.066667,
                        24.983333
                    ],
                    [
                        121.216667,
                        25.65
                    ],
                    [
                        121.216667,
                        26.283333
                    ],
                    [
                        120.066667,
                        25.616667
                    ],
                    [
                        120.066667,
                        24.983333
                    ]
                ],
                [
                    [
                        118.233333,
                        23.45
                    ],
                    [
                        119.216667,
                        23.45
                    ],
                    [
                        119.733333,
                        22.216667
                    ],
                    [
                        118.75,
                        22.216667
                    ],
                    [
                        118.233333,
                        23.45
                    ]
                ],
                [
                    [
                        119.216667,
                        23.45
                    ],
                    [
                        118.233333,
                        23.45
                    ],
                    [
                        118.58522,
                        24.50527
                    ],
                    [
                        119.60953,
                        24.50527
                    ],
                    [
                        119.216667,
                        23.45
                    ]
                ],
                [
                    [
                        119.266667,
                        21.816667
                    ],
                    [
                        121,
                        21.816667
                    ],
                    [
                        121,
                        21.083333
                    ],
                    [
                        119.266667,
                        21.083333
                    ],
                    [
                        119.266667,
                        21.816667
                    ]
                ],
                [
                    [
                        121.666667,
                        21.966667
                    ],
                    [
                        122.466667,
                        21.966667
                    ],
                    [
                        122.466667,
                        23.383333
                    ],
                    [
                        121.666667,
                        23.383333
                    ],
                    [
                        121.666667,
                        21.966667
                    ]
                ],
                [
                    [
                        123.0022,
                        23.9072
                    ],
                    [
                        123.0022,
                        22.7794
                    ],
                    [
                        122.3602,
                        22.7794
                    ],
                    [
                        122.3602,
                        23.9072
                    ],
                    [
                        123.0022,
                        23.9072
                    ]
                ],
                [
                    [
                        122.007769,
                        25.008286
                    ],
                    [
                        122.109108,
                        25.483853
                    ],
                    [
                        122.086025,
                        25.629864
                    ],
                    [
                        122.0734,
                        25.632622
                    ],
                    [
                        121.509428,
                        25.291453
                    ],
                    [
                        121.098214,
                        25.068219
                    ],
                    [
                        121.032914,
                        25.032606
                    ],
                    [
                        119.540947,
                        23.787553
                    ],
                    [
                        119.318567,
                        23.411894
                    ],
                    [
                        119.314478,
                        23.403489
                    ],
                    [
                        119.313639,
                        23.399286
                    ],
                    [
                        119.318342,
                        23.324697
                    ],
                    [
                        119.416139,
                        23.193278
                    ],
                    [
                        120.353647,
                        22.323814
                    ],
                    [
                        120.826414,
                        21.756322
                    ],
                    [
                        121.613458,
                        21.938397
                    ],
                    [
                        121.617317,
                        21.949689
                    ],
                    [
                        121.522547,
                        22.685425
                    ],
                    [
                        121.516608,
                        23.483311
                    ],
                    [
                        121.862142,
                        24.480506
                    ],
                    [
                        121.903125,
                        24.599358
                    ],
                    [
                        121.964661,
                        24.839511
                    ]
                ]
            ]
        ]
    }
}